SNIPE 4                 
1 56744U 23072B   25240.62069596  .00018194  00000+0  64444-3 0  9993
2 56744  97.5493  74.7591 0006236 293.8995  66.1591 15.29158066125201
SNIPE 2                 
1 56745U 23072C   25240.59883498  .00019587  00000+0  65390-3 0  9993
2 56745  97.5523  76.3377 0005490 332.4542  27.6407 15.31072008125241
2023-072G               
1 56749U 23072G   25240.60413794  .00020648  00000+0  63320-3 0  9998
2 56749  97.5176  75.0964 0004628 328.4109  31.6855 15.33788477125375
OTTER PUP               
1 56933U 23084B   25240.33303484  .00038266  00000+0  66989-3 0  9999
2 56933  97.5768  17.2625 0003907 218.5106 141.5867 15.50511554123296
GEISAT PRECURSOR        
1 56934U 23084C   25240.53920253  .00009514  00000+0  34089-3 0  9991
2 56934  97.5865   8.8031 0005260 302.8735  57.1998 15.28950883122722
LAYAN-23                
1 56939U 23084H   25240.50994944  .00131200  00000+0  64033-3 0  9991
2 56939  97.5560  29.1328 0001849 197.5208 162.5997 15.81977565124094
AFRL-XVI                
1 56942U 23084L   25240.34468639  .00053034  00000+0  53524-3 0  9995
2 56942  97.5748  24.2836 0003608 238.9858 121.1047 15.65198261123728
BLACKJACK ACES-3        
1 56950U 23084U   25240.29816786  .00010137  00000+0  45528-3 0  9990
2 56950  97.5848   8.1252 0006634 276.5171  83.5309 15.21341573122661
BLACKJACK ACES-4        
1 56952U 23084W   25240.23809497  .00078964  00000+0  92838-3 0  9995
2 56952  97.5806  19.8823 0005460 226.0370 134.0437 15.61166738123428
BLACKJACK ACES-2        
1 56955U 23084Z   25239.93946120  .00012877  00000+0  57347-3 0  9995
2 56955  97.5852   7.9331 0006278 282.6408  77.4125 15.21570839122624
BLACKJACK ACES-1        
1 56956U 23084AA  25240.31432830  .00013340  00000+0  59443-3 0  9993
2 56956  97.5826   8.0200 0005526 281.5766  78.4849 15.21546740 72399
ION SCV-011             
1 56957U 23084AB  25240.39205634  .00007174  00000+0  29517-3 0  9999
2 56957  98.1213  36.6996 0007431 341.5366  18.5598 15.24473893121130
GHOST-3                 
1 56958U 23084AC  25240.30327174  .00017452  00000+0  50395-3 0  9993
2 56958  97.5866  11.5881 0007601 266.3406  93.6968 15.35708953122889
TOMORROW-R2             
1 56962U 23084AG  25239.95062819  .00035198  00000+0  69288-3 0  9997
2 56962  97.5819  15.7055 0006411 247.4191 112.6380 15.47147758123132
AFR-1                   
1 56964U 23084AJ  25240.53709230  .00006245  00000+0  25564-3 0  9990
2 56964  97.5902   6.7413 0010066 290.6826  69.3331 15.24642414122576
DROID.001               
1 56965U 23084AK  25240.31877276  .00050376  00000+0  80952-3 0  9999
2 56965  97.5790  17.6753 0006721 233.5799 126.4834 15.52841889123301
METEOR-M2 3             
1 57166U 23091A   25240.59328546  .00000017  00000+0  26235-4 0  9994
2 57166  98.6544 295.8881 0003003 311.6967  48.3955 14.24007900112873
STRATOSAT-TK 1 (RS52S)  
1 57167U 23091B   25240.54148385  .00069502  00000+0  13995-2 0  9992
2 57167  97.5444 306.9325 0006174  29.5067 330.6529 15.46324744120344
UMKA 1 (RS40S)          
1 57172U 23091G   25240.55304176  .00007992  00000+0  41647-3 0  9992
2 57172  97.5510 295.5304 0015420  62.1691 298.1102 15.16154502119594
2023-091H               
1 57173U 23091H   25240.57750758  .00013093  00000+0  59877-3 0  9999
2 57173  97.5501 297.3139 0012918  66.3632 293.8958 15.20596916119710
2023-091J               
1 57174U 23091J   25240.59823182  .00004749  00000+0  28737-3 0  9993
2 57174  97.5519 292.6471 0015764  78.7750 281.5251 15.11000251119405
CUBEBEL 2 (EU11S)       
1 57175U 23091K   25240.55882565  .00013387  00000+0  61146-3 0  9999
2 57175  97.5507 297.1967 0013047  68.5871 291.6754 15.20633574119709
SITRO-AIS 5 (KATYS)     
1 57176U 23091L   25240.58641879  .00013117  00000+0  59135-3 0  9990
2 57176  97.5509 297.7037 0014614  56.3424 303.9203 15.21066988119735
ZORKIY-2M 1             
1 57177U 23091M   25240.57225189  .00007828  00000+0  41195-3 0  9991
2 57177  97.5546 295.7391 0015938  58.4878 301.7909 15.15805785119596
CUBESX-HSE 3 (RS42S)    
1 57178U 23091N   25240.56594822  .00014171  00000+0  61926-3 0  9997
2 57178  97.5538 298.6281 0013915  49.6957 310.5492 15.22123660119779
MONITOR-3 (RS58S)       
1 57180U 23091Q   25240.55269330  .00012136  00000+0  55993-3 0  9998
2 57180  97.5533 297.6624 0014726  52.3988 307.8581 15.20288461119714
MONITOR-4 (RS57S)       
1 57182U 23091S   25240.54643321  .00011942  00000+0  55017-3 0  9996
2 57182  97.5528 297.6147 0014756  52.9376 307.3206 15.20342439119715
MONITOR-2 (RS39S)       
1 57184U 23091U   25240.54231759  .00006418  00000+0  34600-3 0  9993
2 57184  97.5536 295.6959 0013358  54.1669 306.0802 15.15056033119580
SVYATOBOR 1 (RS60S)     
1 57187U 23091X   25240.59751027  .00010629  00000+0  49529-3 0  9991
2 57187  97.5536 298.3935 0011617  45.3304 314.8876 15.20018553119760
HORS 1                  
1 57188U 23091Y   25240.59418068  .00010657  00000+0  49633-3 0  9994
2 57188  97.5517 298.2050 0011104  45.7612 314.4533 15.20041382119766
VIZARD-METEO (RS38S)    
1 57189U 23091Z   25240.55591107  .00015587  00000+0  62410-3 0  9992
2 57189  97.5524 300.8143 0009626  38.0895 322.1021 15.25105693119929
NANOZOND 1 (RS49S)      
1 57190U 23091AA  25240.57051956  .00039691  00000+0  10033-2 0  9994
2 57190  97.5473 306.3265 0005422  28.8752 331.2793 15.39673832120300
SITRO-AIS 6 (CHIRKIN)   
1 57192U 23091AC  25240.57912082  .00008372  00000+0  38037-3 0  9999
2 57192  97.5508 297.6920 0014587  56.5312 303.7315 15.20927417119733
SITRO-AIS 8 (ANOKHIN)   
1 57193U 23091AD  25240.54042394  .00014442  00000+0  62346-3 0  9992
2 57193  97.5505 298.3371 0013914  55.9304 304.3251 15.22533036119778
SITRO-AIS 7 (FARTUSHNIY)
1 57194U 23091AE  25240.54036944  .00007207  00000+0  32897-3 0  9996
2 57194  97.5508 297.5790 0014459  57.5100 302.7531 15.20820613119721
AVION KALUGA 650        
1 57195U 23091AF  25240.55858121  .00007277  00000+0  38158-3 0  9990
2 57195  97.5549 296.4136 0012508  54.1444 306.0948 15.15998641119625
HORS 2                  
1 57196U 23091AG  25240.55910588  .00013625  00000+0  58333-3 0  9998
2 57196  97.5533 299.7709 0010466  44.1973 316.0097 15.22868126119851
A-SEANSAT-PG1           
1 57197U 23091AH  25240.54485328  .00016867  00000+0  66542-3 0  9999
2 57197  97.5506 300.6507 0009688  44.6543 315.5473 15.25583120119923
SITRO-AIS 10 (BURDAEV)  
1 57199U 23091AK  25240.60183609  .00017031  00000+0  66041-3 0  9993
2 57199  97.5517 301.1623 0009333  41.5147 318.6798 15.26159488119959
SITRO-AIS 9 (SHCHUKIN)  
1 57201U 23091AM  25240.56427195  .00017085  00000+0  66649-3 0  9996
2 57201  97.5515 301.0100 0009379  42.1986 317.9973 15.25959254119942
UTMN 2 (RS27S)          
1 57203U 23091AP  25240.56301514  .00013301  00000+0  56526-3 0  9994
2 57203  97.5526 299.8798 0010361  40.2997 319.9005 15.23126752119863
SITRO-AIS 12 (SMIRENNIY)
1 57204U 23091AQ  25240.60127078  .00017242  00000+0  66854-3 0  9994
2 57204  97.5523 301.3650 0009061  35.6911 324.4931 15.26162030119968
ARCCUBE 1 (RS25S)       
1 57205U 23091AR  25240.55695796  .00095859  00000+0  14850-2 0  9994
2 57205  97.5382 309.7835 0002811   3.9422 356.1852 15.53694482120552
SITRO-AIS 11 (SHEFFER)  
1 57208U 23091AU  25240.54313812  .00017223  00000+0  66331-3 0  9993
2 57208  97.5523 301.4186 0008997  36.3747 323.8101 15.26387804119969
H2SAT (HEINRICH HERTZ)  
1 57213U 23093A   25240.18345072  .00000024  00000+0  00000+0 0  9992
2 57213   0.0156 108.2098 0000690 145.7433 211.8402  1.00271265  7988
KUZGTU 1 (RS47S)        
1 57217U 23091AV  25240.56028761  .00013425  00000+0  59868-3 0  9998
2 57217  97.5513 298.0701 0014069  51.6870 308.5628 15.21440383119754
2023-103B               
1 57422U 23103B   25239.79840071  .00516357  11988-3  92465-3 0  9992
2 57422  96.3482 298.2012 0023535 126.9765 233.3676 16.01180032120254
FENGYUN 3F              
1 57490U 23111A   25240.60627956  .00000065  00000+0  51136-4 0  9997
2 57490  98.7216 310.5432 0001008 115.6348 244.4933 14.19854351107340
HJ-2F                   
1 57519U 23116A   25240.60163363  .00011954  00000+0  50727-3 0  9994
2 57519  97.3885 246.2234 0001576  12.8351 347.2926 15.23245233114268
XRISM                   
1 57800U 23137A   25239.91121340  .00007207  00000+0  44254-3 0  9995
2 57800  31.0015  94.3899 0008210 254.9553 105.0177 15.08687495108472
GRBBETA                 
1 60237U 24128C   25240.17581588  .00006754  00000+0  49440-3 0  9996
2 60237  61.9914 161.9078 0056442  74.6485 286.0833 15.03234755 62167
2024-149A               
1 60468U 24149A   25240.59228309  .00010195  00000+0  39461-3 0  9996
2 60468  97.4026 317.2855 0004259 160.8130 199.3270 15.26372240 57324
WARATAH SEED-1          
1 60469U 24149B   25239.76680370  .00012959  00000+0  49544-3 0  9997
2 60469  97.3997 316.4788 0002769 157.6679 202.4681 15.26725234 57207
PHISAT 2                
1 60470U 24149C   25240.26592764  .00011624  00000+0  46455-3 0  9991
2 60470  97.4057 316.8010 0002191 150.1406 209.9957 15.25274833 57250
LEMUR-2-TOMATOKECHUP    
1 60471U 24149D   25240.15394455  .00017530  00000+0  64272-3 0  9996
2 60471  97.4079 317.6683 0002288 160.4468 199.6860 15.28045386 57293
CONNECTA IOT-1          
1 60472U 24149E   25240.57393415  .00006836  00000+0  28919-3 0  9993
2 60472  97.4060 316.5733 0002061 169.3868 190.7413 15.23521654 57264
LOPEN                   
1 60473U 24149F   25240.18919984  .00014039  00000+0  49501-3 0  9990
2 60473  97.4059 318.0144 0001803 171.9614 188.1656 15.29377242 57322
ROCK                    
1 60474U 24149G   25240.57356260  .00015500  00000+0  54510-3 0  9996
2 60474  97.4056 318.4108 0001826 170.5608 189.5667 15.29440412 57380
CONNECTA IOT-3          
1 60475U 24149H   25240.57190467  .00007903  00000+0  33877-3 0  9993
2 60475  97.4014 316.4867 0003542 189.0328 171.0845 15.23016905 57278
